NORAD_CAT_ID,OBJECT_NAME,OBJECT_TYPE,EPOCH,MEAN_MOTION,ECCENTRICITY,INCLINATION,RA_OF_ASC_NODE,ARG_OF_PERICENTER,MEAN_ANOMALY,BSTAR,MEAN_MOTION_DOT,MEAN_MOTION_DDOT,TLE_LINE0,TLE_LINE1,TLE_LINE2,SEMIMAJOR_AXIS,PERIOD,APOGEE,PERIGEE,DECAYED
56781.0,STARLINK-5989,PAYLOAD,2024-01-16 21:32:29,14.98337368,0.0002782,70.0006,158.2284,274.6332,85.4509,8.9821e-05,9.79e-06,0.0,0 STARLINK-5989,1 56781U 23078Q   24016.89755816  .00000979  00000-0  89821-4 0  9996,2 56781  70.0006 158.2284 0002782 274.6332  85.4509 14.98337368 35683,6950.17,96.107,573.969,570.102,0.0
56781.0,STARLINK-5989,PAYLOAD,2024-01-17 11:57:42,14.98322675,0.0002979,70.0007,156.714,268.6536,91.4282,8.4754e-07,-8.3e-07,0.0,0 STARLINK-5989,1 56781U 23078Q   24017.49840928 -.00000083  00000-0  84754-6 0  9991,2 56781  70.0007 156.7140 0002979 268.6536  91.4282 14.98322675 35775,6950.216,96.107,574.151,570.01,0.0
56781.0,STARLINK-5989,PAYLOAD,2024-01-17 15:09:58,14.98321988,0.0002771,70.0012,156.3787,270.2696,89.8146,2.0937e-05,1.57e-06,0.0,0 STARLINK-5989,1 56781U 23078Q   24017.63193009  .00000157  00000-0  20937-4 0  9990,2 56781  70.0012 156.3787 0002771 270.2696  89.8146 14.98321988 35530,6950.218,96.108,574.009,570.157,0.0
56781.0,STARLINK-5989,PAYLOAD,2024-01-17 18:22:14,14.98326388,0.000279,70.0009,156.0415,271.1711,88.9128,4.7317e-05,4.72e-06,0.0,0 STARLINK-5989,1 56781U 23078Q   24017.76544671  .00000472  00000-0  47317-4 0  9990,2 56781  70.0009 156.0415 0002790 271.1711  88.9128 14.98326388 35551,6950.204,96.107,574.008,570.13,0.0
56781.0,STARLINK-5989,PAYLOAD,2024-01-18 11:59:43,14.98329513,0.0002984,70.0004,154.189,268.3551,91.7266,-3.4187e-05,-5.01e-06,0.0,0 STARLINK-5989,1 56781U 23078Q   24018.49980704 -.00000501  00000-0 -34187-4 0  9998,2 56781  70.0004 154.1890 0002984 268.3551  91.7266 14.98329513 35926,6950.194,96.107,574.133,569.985,0.0
56781.0,STARLINK-5989,PAYLOAD,2024-01-18 13:35:51,14.98329926,0.0003068,70.0004,154.0211,270.7561,89.3247,-4.3016e-05,-6.06e-06,0.0,0 STARLINK-5989,1 56781U 23078Q   24018.56656713 -.00000606  00000-0 -43016-4 0  9993,2 56781  70.0004 154.0211 0003068 270.7561  89.3247 14.98329926 35676,6950.193,96.107,574.19,569.926,0.0
56781.0,STARLINK-5989,PAYLOAD,2024-01-18 18:24:15,14.98331748,0.0002845,70.0011,153.517,260.6556,99.4282,-1.5959e-06,-1.12e-06,0.0,0 STARLINK-5989,1 56781U 23078Q   24018.76684430 -.00000112  00000-0 -15959-5 0  9990,2 56781  70.0011 153.5170 0002845 260.6556  99.4282 14.98331748 35706,6950.187,96.107,574.03,570.075,0.0
56781.0,STARLINK-5989,PAYLOAD,2024-01-19 12:01:43,14.98332141,0.0002824,70.0014,151.6664,257.4281,102.6562,3.4923e-05,3.24e-06,0.0,0 STARLINK-5989,1 56781U 23078Q   24019.50120217  .00000324  00000-0  34923-4 0  9995,2 56781  70.0014 151.6664 0002824 257.4281 102.6562 14.98332141 36079,6950.186,96.107,574.014,570.089,0.0
56781.0,STARLINK-5989,PAYLOAD,2024-01-19 13:37:51,14.9833211,0.0002822,70.0014,151.4981,257.2588,102.8256,3.4225e-05,3.15e-06,0.0,0 STARLINK-5989,1 56781U 23078Q   24019.56796206  .00000315  00000-0  34225-4 0  9993,2 56781  70.0014 151.4981 0002822 257.2588 102.8256 14.98332110 35825,6950.186,96.107,574.013,570.09,0.0
56781.0,STARLINK-5989,PAYLOAD,2024-01-19 18:26:15,14.98334101,0.0002792,70.0016,150.9937,256.5504,103.5344,5.5191e-05,5.66e-06,0.0,0 STARLINK-5989,1 56781U 23078Q   24019.76823978  .00000566  00000-0  55191-4 0  9995,2 56781  70.0016 150.9937 0002792 256.5504 103.5344 14.98334101 35859,6950.18,96.107,573.986,570.105,0.0
56781.0,STARLINK-5989,PAYLOAD,2024-01-20 12:03:45,14.98328369,0.0002861,70.0013,149.1401,260.5296,99.554,-2.66e-05,-4.1e-06,0.0,0 STARLINK-5989,1 56781U 23078Q   24020.50260447 -.00000410  00000-0 -26600-4 0  9998,2 56781  70.0013 149.1401 0002861 260.5296  99.5540 14.98328369 36225,6950.198,96.107,574.051,570.074,0.0
56781.0,STARLINK-5989,PAYLOAD,2024-01-20 13:39:53,14.98327176,0.0002887,70.0012,148.9718,260.228,99.8553,-4.2258e-05,-5.97e-06,0.0,0 STARLINK-5989,1 56781U 23078Q   24020.56936569 -.00000597  00000-0 -42258-4 0  9992,2 56781  70.0012 148.9718 0002887 260.2280  99.8553 14.98327176 35973,6950.202,96.107,574.073,570.06,0.0
56781.0,STARLINK-5989,PAYLOAD,2024-01-20 18:28:17,14.98328171,0.0002795,70.0012,148.4665,258.572,101.5125,-1.9266e-05,-3.23e-06,0.0,0 STARLINK-5989,1 56781U 23078Q   24020.76964464 -.00000323  00000-0 -19266-4 0  9999,2 56781  70.0012 148.4665 0002795 258.5720 101.5125 14.98328171 36003,6950.199,96.107,574.006,570.121,0.0
56781.0,STARLINK-5989,PAYLOAD,2024-01-21 12:05:45,14.98331304,0.0003136,70.0004,146.6147,266.6936,93.3865,-2.3347e-05,-3.72e-06,0.0,0 STARLINK-5989,1 56781U 23078Q   24021.50400213 -.00000372  00000-0 -23347-4 0  9998,2 56781  70.0004 146.6147 0003136 266.6936  93.3865 14.98331304 36379,6950.189,96.107,574.233,569.874,0.0
56781.0,STARLINK-5989,PAYLOAD,2024-01-21 18:30:17,14.98337856,0.0003094,70.001,145.945,260.9261,99.1548,1.8832e-05,1.32e-06,0.0,0 STARLINK-5989,1 56781U 23078Q   24021.77103644  .00000132  00000-0  18832-4 0  9990,2 56781  70.0010 145.9450 0003094 260.9261  99.1548 14.98337856 36152,6950.169,96.106,574.184,569.883,0.0
56781.0,STARLINK-5989,PAYLOAD,2024-01-22 07:19:22,14.98324449,0.0003131,70.0024,144.5989,283.6146,76.4665,0.00015896,1.804e-05,0.0,0 STARLINK-5989,1 56781U 23078Q   24022.30512033  .00001804  00000-0  15896-3 0  9999,2 56781  70.0024 144.5989 0003131 283.6146  76.4665 14.98324449 36236,6950.21,96.107,574.251,569.899,0.0
56781.0,STARLINK-5989,PAYLOAD,2024-01-22 12:07:46,14.98326755,0.0003203,70.0018,144.0919,276.714,83.3655,-1.2301e-05,-2.4e-06,0.0,0 STARLINK-5989,1 56781U 23078Q   24022.50540364 -.00000240  00000-0 -12301-4 0  9993,2 56781  70.0018 144.0919 0003203 276.7140  83.3655 14.98326755 36524,6950.203,96.107,574.294,569.842,0.0
56781.0,STARLINK-5989,PAYLOAD,2024-01-22 18:32:18,14.98327595,0.0002754,70.0017,143.418,265.5137,94.5707,5.5603e-05,5.71e-06,0.0,0 STARLINK-5989,1 56781U 23078Q   24022.77244109  .00000571  00000-0  55603-4 0  9997,2 56781  70.0017 143.4180 0002754 265.5137  94.5707 14.98327595 36309,6950.2,96.107,573.979,570.151,0.0
56781.0,STARLINK-5989,PAYLOAD,2024-01-23 12:09:47,14.98333247,0.0003186,70.0013,141.5664,268.6631,91.4163,-1.5731e-06,-1.12e-06,0.0,0 STARLINK-5989,1 56781U 23078Q   24023.50679749 -.00000112  00000-0 -15731-5 0  9993,2 56781  70.0013 141.5664 0003186 268.6631  91.4163 14.98333247 36677,6950.183,96.107,574.262,569.834,0.0
56781.0,STARLINK-5989,PAYLOAD,2024-01-23 15:22:02,14.98354092,0.0003027,70.0014,141.2312,265.584,94.4973,-0.00030723,-3.759e-05,0.0,0 STARLINK-5989,1 56781U 23078Q   24023.64031169 -.00003759  00000-0 -30723-3 0  9992,2 56781  70.0014 141.2312 0003027 265.5840  94.4973 14.98354092 36692,6950.118,96.105,574.087,569.88,0.0
56781.0,STARLINK-5989,PAYLOAD,2024-01-23 16:58:11,14.98334832,0.0003151,70.0013,141.0617,266.5364,93.5434,4.1192e-05,3.99e-06,0.0,0 STARLINK-5989,1 56781U 23078Q   24023.70707462  .00000399  00000-0  41192-4 0  9993,2 56781  70.0013 141.0617 0003151 266.5364  93.5434 14.98334832 36442,6950.178,96.107,574.233,569.853,0.0
56781.0,STARLINK-5989,PAYLOAD,2024-01-24 12:11:48,14.98323348,0.0002685,70.0026,139.0448,253.7388,106.3476,9.2326e-06,1.7e-07,0.0,0 STARLINK-5989,1 56781U 23078Q   24024.50820307  .00000017  00000-0  92326-5 0  9999,2 56781  70.0026 139.0448 0002685 253.7388 106.3476 14.98323348 36821,6950.213,96.107,573.945,570.212,0.0
56781.0,STARLINK-5989,PAYLOAD,2024-01-24 13:47:56,14.98322049,0.0002605,70.0021,138.8752,248.6286,111.4595,-8.1713e-06,-1.9e-06,0.0,0 STARLINK-5989,1 56781U 23078Q   24024.57496465 -.00000190  00000-0 -81713-5 0  9992,2 56781  70.0021 138.8752 0002605 248.6286 111.4595 14.98322049 36571,6950.217,96.108,573.893,570.272,0.0
56781.0,STARLINK-5989,PAYLOAD,2024-01-24 17:00:13,14.98320869,0.0002763,70.0017,138.5387,259.2856,100.7992,-3.1624e-05,-4.7e-06,0.0,0 STARLINK-5989,1 56781U 23078Q   24024.70848714 -.00000470  00000-0 -31624-4 0  9991,2 56781  70.0017 138.5387 0002763 259.2856 100.7992 14.98320869 36595,6950.221,96.108,574.006,570.166,0.0
56781.0,STARLINK-5989,PAYLOAD,2024-01-25 12:13:49,14.98325921,0.0002616,70.0007,136.5178,244.7575,115.3313,-5.2815e-05,-7.23e-06,0.0,0 STARLINK-5989,1 56781U 23078Q   24025.50960622 -.00000723  00000-0 -52815-4 0  9999,2 56781  70.0007 136.5178 0002616 244.7575 115.3313 14.98325921 36979,6950.206,96.107,573.889,570.252,0.0
56781.0,STARLINK-5989,PAYLOAD,2024-01-25 13:49:57,14.9832501,0.0002638,70.001,136.3491,247.7121,112.3759,-1.2392e-05,-2.41e-06,0.0,0 STARLINK-5989,1 56781U 23078Q   24025.57636539 -.00000241  00000-0 -12392-4 0  9994,2 56781  70.0010 136.3491 0002638 247.7121 112.3759 14.98325010 36726,6950.208,96.107,573.907,570.24,0.0
56781.0,STARLINK-5989,PAYLOAD,2024-01-25 17:02:14,14.98311611,0.0002544,70.0013,136.0136,252.8344,107.2536,0.00029729,3.454e-05,0.0,0 STARLINK-5989,1 56781U 23078Q   24025.70988678  .00003454  00000-0  29729-3 0  9991,2 56781  70.0013 136.0136 0002544 252.8344 107.2536 14.98311611 36742,6950.25,96.108,573.883,570.347,0.0
56781.0,STARLINK-5989,PAYLOAD,2024-01-26 10:39:42,14.98332202,0.0002802,70.0008,134.1616,259.8165,100.2678,0.00012367,1.383e-05,0.0,0 STARLINK-5989,1 56781U 23078Q   24026.44423735  .00001383  00000-0  12367-3 0  9990,2 56781  70.0008 134.1616 0002802 259.8165 100.2678 14.98332202 37114,6950.186,96.107,573.999,570.104,0.0
56781.0,STARLINK-5989,PAYLOAD,2024-01-26 13:51:58,14.9833262,0.0002797,70.0007,133.8248,259.8202,100.2642,0.0001239,1.386e-05,0.0,0 STARLINK-5989,1 56781U 23078Q   24026.57775688  .00001386  00000-0  12390-3 0  9990,2 56781  70.0007 133.8248 0002797 259.8202 100.2642 14.98332620 36872,6950.185,96.107,573.994,570.106,0.0
56781.0,STARLINK-5989,PAYLOAD,2024-01-27 12:17:51,14.98336896,0.0002484,70.0025,131.4716,221.2261,138.871,-0.00010527,-1.349e-05,0.0,0 STARLINK-5989,1 56781U 23078Q   24027.51239991 -.00001349  00000-0 -10527-3 0  9998,2 56781  70.0025 131.4716 0002484 221.2261 138.8710 14.98336896 37274,6950.172,96.107,573.763,570.31,0.0
